*******************************************************************************
 Revised: Apr 26, 2004   Voyager 2 Spacecraft (interplanetary) / (Sun)     -32
                http://www.jpl.nasa.gov/missions/current/voyager.html 

 BACKGROUND
   See the web-page above for extensive information on the Voyager Mission.

 SPACECRAFT TRAJECTORY:
   This trajectory is composed of two merged sections:

     #1) 1977-Aug-20 to 1990-Jan-23:
          A patched conic mission-design type trajectory in which the conics 
          were constructed to approximately match specific events (such 
          satellite encounters), providing a rough accuracy. 

     #2) 1990-Jan-23 to 2021-Jan-5 (pfile_m05208u.nio):
          Voyager Navigation Team solution of Feb 23, 1993. It is based on
          actual tracking data from 1990-Jan-23 to 1992-Oct-30.
*******************************************************************************
 
 
*******************************************************************************
Ephemeris / WWW_USER Thu Dec 13 08:48:24 2012 Pasadena, USA      / Horizons    
*******************************************************************************
Target body name: Voyager II Spacecraft (-32)     {source: pfile_m05208u.nio}
Center body name: Earth (399)                     {source: DE405}
Center-site name: (user defined site below)
*******************************************************************************
Start time      : A.D. 2012-Dec-11 00:00:00.0000 UT      
Stop  time      : A.D. 2013-Jan-11 00:00:00.0000 UT      
Step-size       : 1 minutes
*******************************************************************************
Target pole/equ : No model available
Target radii    : (unavailable)                                                
Center geodetic : 8.53330000,47.3667476,-0.000128 {E-lon(deg),Lat(deg),Alt(km)}
Center cylindric: 8.53330000,4327.78336,4669.4727 {E-lon(deg),Dxy(km),Dz(km)}
Center pole/equ : High-precision EOP model        {East-longitude +}
Center radii    : 6378.1 x 6378.1 x 6356.8 km     {Equator, meridian, pole}    
Target primary  : Earth                           {source: DE405+DE406}
Interfering body: MOON (Req= 1737.400) km         {source: DE405}
Deflecting body : Sun, EARTH                      {source: DE405}
Deflecting GMs  : 1.3271E+11, 3.9860E+05 km^3/s^2                              
Atmos refraction: YES (Earth refraction model)
RA format       : DEG
Time format     : CAL 
RTS-only print  : NO       
EOP file        : eop.121212.p130305                                           
EOP coverage    : DATA-BASED 1962-JAN-20 TO 2012-DEC-12. PREDICTS-> 2013-MAR-04
Units conversion: 1 AU= 149597870.691 km, c= 299792.458 km/s, 1 day= 86400.0 s 
Table cut-offs 1: Elevation (-90.0deg=NO ),Airmass (>38.000=NO), Daylight (NO )
Table cut-offs 2: Solar Elongation (  0.0,180.0=NO )                           
Table format    : Comma Separated Values (spreadsheet)
*********************************************************************************
 Date__(UT)__HR:MN, , ,Azi_(r-appr), Elev_(r-appr),            delta,     deldot,
*********************************************************************************
$$SOE
 2012-Dec-23 06:32,N, ,131.0009,-41.8689, 1.5139496260E+10, 22.2762830,
 2012-Dec-23 06:33,N, ,131.0833,-41.7409, 1.5139497597E+10, 22.2758574,
 2012-Dec-23 06:34,N, ,131.1661,-41.6130, 1.5139498933E+10, 22.2754350,
 2012-Dec-23 06:35,N, ,131.2491,-41.4852, 1.5139500270E+10, 22.2750161,
 2012-Dec-23 06:36,C, ,131.3324,-41.3577, 1.5139501606E+10, 22.2746005,
 2012-Dec-23 06:37,C, ,131.4160,-41.2303, 1.5139502943E+10, 22.2741883,
 2012-Dec-23 06:38,C, ,131.4998,-41.1030, 1.5139504279E+10, 22.2737794,
 2012-Dec-23 06:39,C, ,131.5840,-40.9759, 1.5139505615E+10, 22.2733739,
 2012-Dec-23 06:40,C, ,131.6684,-40.8490, 1.5139506952E+10, 22.2729718,
 2012-Dec-23 06:41,C, ,131.7531,-40.7223, 1.5139508288E+10, 22.2725731,
 2012-Dec-23 06:42,C, ,131.8381,-40.5957, 1.5139509624E+10, 22.2721778,
 2012-Dec-23 06:43,C, ,131.9234,-40.4693, 1.5139510960E+10, 22.2717858,
 2012-Dec-23 06:44,C, ,132.0089,-40.3431, 1.5139512297E+10, 22.2713973,
 2012-Dec-23 06:45,C, ,132.0947,-40.2170, 1.5139513633E+10, 22.2710121,
 2012-Dec-23 06:46,C, ,132.1808,-40.0911, 1.5139514969E+10, 22.2706303,
 2012-Dec-23 06:47,C, ,132.2672,-39.9654, 1.5139516305E+10, 22.2702519,
 2012-Dec-23 06:48,C, ,132.3538,-39.8398, 1.5139517641E+10, 22.2698769,
 2012-Dec-23 06:49,C, ,132.4408,-39.7144, 1.5139518977E+10, 22.2695052,
 2012-Dec-23 06:50,C, ,132.5279,-39.5892, 1.5139520314E+10, 22.2691370,
 2012-Dec-23 06:51,C, ,132.6154,-39.4642, 1.5139521650E+10, 22.2687722,
 2012-Dec-23 06:52,C, ,132.7031,-39.3393, 1.5139522986E+10, 22.2684108,
 2012-Dec-23 06:53,C, ,132.7911,-39.2146, 1.5139524322E+10, 22.2680528,
 2012-Dec-23 06:54,C, ,132.8793,-39.0901, 1.5139525658E+10, 22.2676981,
 2012-Dec-23 06:55,C, ,132.9678,-38.9658, 1.5139526994E+10, 22.2673469,
 2012-Dec-23 06:56,C, ,133.0566,-38.8417, 1.5139528330E+10, 22.2669991,
 2012-Dec-23 06:57,C, ,133.1456,-38.7177, 1.5139529666E+10, 22.2666547,
 2012-Dec-23 06:58,C, ,133.2349,-38.5939, 1.5139531001E+10, 22.2663137,
 2012-Dec-23 06:59,C, ,133.3245,-38.4703, 1.5139532337E+10, 22.2659761,
 2012-Dec-23 07:00,C, ,133.4143,-38.3469, 1.5139533673E+10, 22.2656419,
 2012-Dec-23 07:01,C, ,133.5044,-38.2237, 1.5139535009E+10, 22.2653111,
 2012-Dec-23 07:02,C, ,133.5947,-38.1006, 1.5139536345E+10, 22.2649838,
 2012-Dec-23 07:03,C, ,133.6853,-37.9777, 1.5139537681E+10, 22.2646598,
 2012-Dec-23 07:04,C, ,133.7762,-37.8550, 1.5139539017E+10, 22.2643393,
 2012-Dec-23 07:05,C, ,133.8673,-37.7325, 1.5139540352E+10, 22.2640221,
 2012-Dec-23 07:06,C, ,133.9587,-37.6102, 1.5139541688E+10, 22.2637084,
 2012-Dec-23 07:07,C, ,134.0503,-37.4881, 1.5139543024E+10, 22.2633981,
 2012-Dec-23 07:08,C, ,134.1421,-37.3662, 1.5139544360E+10, 22.2630912,
 2012-Dec-23 07:09,C, ,134.2343,-37.2444, 1.5139545695E+10, 22.2627877,
 2012-Dec-23 07:10,C, ,134.3266,-37.1229, 1.5139547031E+10, 22.2624877,
 2012-Dec-23 07:11,C, ,134.4193,-37.0015, 1.5139548367E+10, 22.2621910,
 2012-Dec-23 07:12,*, ,134.5121,-36.8804, 1.5139549702E+10, 22.2618978,
 2012-Dec-23 07:13,*, ,134.6053,-36.7594, 1.5139551038E+10, 22.2616080,
 2012-Dec-23 07:14,*, ,134.6986,-36.6386, 1.5139552374E+10, 22.2613216,
 2012-Dec-23 07:15,*, ,134.7922,-36.5180, 1.5139553709E+10, 22.2610386,
 2012-Dec-23 07:16,*, ,134.8861,-36.3976, 1.5139555045E+10, 22.2607590,
 2012-Dec-23 07:17,*, ,134.9802,-36.2774, 1.5139556380E+10, 22.2604829,
 2012-Dec-23 07:18,*, ,135.0746,-36.1574, 1.5139557716E+10, 22.2602101,
 2012-Dec-23 07:19,*, ,135.1692,-36.0376, 1.5139559051E+10, 22.2599408,
 2012-Dec-23 07:20,*, ,135.2640,-35.9180, 1.5139560387E+10, 22.2596749,
 2012-Dec-23 07:21,*, ,135.3591,-35.7986, 1.5139561722E+10, 22.2594124,
 2012-Dec-23 07:22,*, ,135.4544,-35.6794, 1.5139563058E+10, 22.2591533,
 2012-Dec-23 07:23,*, ,135.5500,-35.5604, 1.5139564393E+10, 22.2588976,
 2012-Dec-23 07:24,*, ,135.6458,-35.4416, 1.5139565729E+10, 22.2586454,
 2012-Dec-23 07:25,*, ,135.7419,-35.3230, 1.5139567064E+10, 22.2583965,
 2012-Dec-23 07:26,*, ,135.8382,-35.2047, 1.5139568400E+10, 22.2581511,
 2012-Dec-23 07:27,*, ,135.9347,-35.0865, 1.5139569735E+10, 22.2579091,
 2012-Dec-23 07:28,*, ,136.0314,-34.9685, 1.5139571071E+10, 22.2576705,
 2012-Dec-23 07:29,*, ,136.1285,-34.8507, 1.5139572406E+10, 22.2574352,
 2012-Dec-23 07:30,*, ,136.2257,-34.7332, 1.5139573741E+10, 22.2572034,
 2012-Dec-23 07:31,*, ,136.3232,-34.6158, 1.5139575077E+10, 22.2569751,
 2012-Dec-23 07:32,*, ,136.4209,-34.4987, 1.5139576412E+10, 22.2567501,
 2012-Dec-23 07:33,*, ,136.5188,-34.3817, 1.5139577747E+10, 22.2565285,
 2012-Dec-23 07:34,*, ,136.6170,-34.2650, 1.5139579083E+10, 22.2563103,
 2012-Dec-23 07:35,*, ,136.7154,-34.1485, 1.5139580418E+10, 22.2560955,
 2012-Dec-23 07:36,*, ,136.8141,-34.0322, 1.5139581753E+10, 22.2558841,
 2012-Dec-23 07:37,*, ,136.9130,-33.9161, 1.5139583089E+10, 22.2556762,
 2012-Dec-23 07:38,*, ,137.0121,-33.8002, 1.5139584424E+10, 22.2554716,
 2012-Dec-23 07:39,*, ,137.1114,-33.6846, 1.5139585759E+10, 22.2552704,
 2012-Dec-23 07:40,*, ,137.2110,-33.5691, 1.5139587094E+10, 22.2550726,
 2012-Dec-23 07:41,*, ,137.3108,-33.4539, 1.5139588430E+10, 22.2548782,
 2012-Dec-23 07:42,*, ,137.4109,-33.3389, 1.5139589765E+10, 22.2546872,
 2012-Dec-23 07:43,*, ,137.5111,-33.2241, 1.5139591100E+10, 22.2544996,
 2012-Dec-23 07:44,*, ,137.6116,-33.1095, 1.5139592435E+10, 22.2543153,
 2012-Dec-23 07:45,*, ,137.7124,-32.9952, 1.5139593770E+10, 22.2541345,
 2012-Dec-23 07:46,*, ,137.8133,-32.8811, 1.5139595106E+10, 22.2539570,
 2012-Dec-23 07:47,*, ,137.9145,-32.7672, 1.5139596441E+10, 22.2537829,
 2012-Dec-23 07:48,*, ,138.0159,-32.6535, 1.5139597776E+10, 22.2536122,
 2012-Dec-23 07:49,*, ,138.1175,-32.5400, 1.5139599111E+10, 22.2534449,
 2012-Dec-23 07:50,*, ,138.2194,-32.4268, 1.5139600446E+10, 22.2532810,
 2012-Dec-23 07:51,*, ,138.3215,-32.3138, 1.5139601781E+10, 22.2531204,
 2012-Dec-23 07:52,*, ,138.4238,-32.2010, 1.5139603116E+10, 22.2529632,
 2012-Dec-23 07:53,*, ,138.5263,-32.0884, 1.5139604452E+10, 22.2528093,
 2012-Dec-23 07:54,*, ,138.6291,-31.9761, 1.5139605787E+10, 22.2526588,
 2012-Dec-23 07:55,*, ,138.7320,-31.8640, 1.5139607122E+10, 22.2525117,
 2012-Dec-23 07:56,*, ,138.8352,-31.7521, 1.5139608457E+10, 22.2523679,
 2012-Dec-23 07:57,*, ,138.9386,-31.6405, 1.5139609792E+10, 22.2522275,
 2012-Dec-23 07:58,*, ,139.0423,-31.5291, 1.5139611127E+10, 22.2520905,
 2012-Dec-23 07:59,*, ,139.1462,-31.4179, 1.5139612462E+10, 22.2519568,
 2012-Dec-23 08:00,*, ,139.2502,-31.3070, 1.5139613797E+10, 22.2518264,
 2012-Dec-23 08:01,*, ,139.3545,-31.1962, 1.5139615132E+10, 22.2516994,
 2012-Dec-23 08:02,*, ,139.4591,-31.0858, 1.5139616467E+10, 22.2515758,
 2012-Dec-23 08:03,*, ,139.5638,-30.9755, 1.5139617802E+10, 22.2514554,
 2012-Dec-23 08:04,*, ,139.6688,-30.8655, 1.5139619137E+10, 22.2513384,
 2012-Dec-23 08:05,*, ,139.7739,-30.7558, 1.5139620472E+10, 22.2512248,
